[{"OBJECT_NAME":"ONEWEB-0636","OBJECT_ID":"2023-043AH","EPOCH":"2026-03-09T22:58:45.028704","MEAN_MOTION":13.15547497,"ECCENTRICITY":0.00013476,"INCLINATION":87.894,"RA_OF_ASC_NODE":279.0124,"ARG_OF_PERICENTER":88.8554,"MEAN_ANOMALY":271.2731,"EPHEMERIS_TYPE":0,"CLASSIFICATION_TYPE":"U","NORAD_CAT_ID":56077,"ELEMENT_SET_NO":999,"REV_AT_EPOCH":14336,"BSTAR":0.00024024145,"MEAN_MOTION_DOT":1.03e-6,"MEAN_MOTION_DDOT":0},{"OBJECT_NAME":"DELTA 1 DEB","OBJECT_ID":"1975-052T","EPOCH":"2026-03-09T08:00:48.699072","MEAN_MOTION":13.24842524,"ECCENTRICITY":0.00998989,"INCLINATION":99.8162,"RA_OF_ASC_NODE":7.833,"ARG_OF_PERICENTER":161.9957,"MEAN_ANOMALY":329.5879,"EPHEMERIS_TYPE":0,"CLASSIFICATION_TYPE":"U","NORAD_CAT_ID":21282,"ELEMENT_SET_NO":999,"REV_AT_EPOCH":68464,"BSTAR":0.00012666868,"MEAN_MOTION_DOT":1.5e-7,"MEAN_MOTION_DDOT":0}]
